ONEWEB-0320             
1 49190U 21083E   25019.54199154 -.00000029  00000+0 -10640-3 0  9998
2 49190  87.9081  77.6506 0001899  99.1844 260.9503 13.18683981162283
ONEWEB-0321             
1 49191U 21083F   25019.49413449  .00000035  00000+0  54578-4 0  9993
2 49191  87.9255  16.6399 0001769  95.8134 264.3201 13.20772686169027
ONEWEB-0322             
1 49192U 21083G   25019.56543281  .00000334  00000+0  87828-3 0  9995
2 49192  87.8897  62.3878 0001935 109.7288 250.4050 13.13468855163494
ONEWEB-0324             
1 49193U 21083H   25019.60364136  .00000007  00000+0 -14541-4 0  9992
2 49193  87.9079  77.6185 0002097  95.5305 264.6066 13.18683774162318
ONEWEB-0325             
1 49194U 21083J   25019.60838388  .00000070  00000+0  14427-3 0  9999
2 49194  87.9082  77.6340 0001833 102.7827 257.3510 13.18689118162325
ONEWEB-0326             
1 49195U 21083K   25019.54673328 -.00000023  00000+0 -90500-4 0  9991
2 49195  87.9079  77.6397 0001803  86.9566 273.1772 13.18683515162303
ONEWEB-0327             
1 49196U 21083L   25019.39419063  .00000005  00000+0 -20394-4 0  9992
2 49196  87.9081  77.6968 0001679  89.3574 270.7750 13.18684509162301
ONEWEB-0328             
1 49197U 21083M   25019.55591465  .00000279  00000+0  72825-3 0  9995
2 49197  87.8883  62.3506 0001994  96.2826 263.8530 13.13469507163479
